{"type": "FeatureCollection", "features": [ {"type": "Feature", "properties": {"norad_id": 28659, "name": "DIRECTV 8", "group": "intelsat", "lat": 0.013748485120337656, "lon": 117.40306780340846, "alt_km": 35797.46659453489, "timestamp": "2025-12-04T10:51:49.773606+00:00", "meta": {"OBJECT_NAME": "DIRECTV 8", "OBJECT_ID": "2005-019A", "EPOCH": "2025-12-03T13:11:23.970336", "MEAN_MOTION": 1.00271387, "ECCENTRICITY": 0.00033169, "INCLINATION": 0.0159, "RA_OF_ASC_NODE": 313.723, "ARG_OF_PERICENTER": 307.4346, "MEAN_ANOMALY": 250.2929, "EPHEMERIS_TYPE": 0, "CLASSIFICATION_TYPE": "U", "NORAD_CAT_ID": 28659, "ELEMENT_SET_NO": 999, "REV_AT_EPOCH": 7511, "BSTAR": 0, "MEAN_MOTION_DOT": 1.9e-07, "MEAN_MOTION_DDOT": 0}, "tle": {"line1": "1 28659U 05019A   25337.54958299  .00000019  00000+0  00000+0 0  9994", "line2": "2 28659   0.0159 313.7230 0003316 307.4346 250.2929  1.00271387 75118"}}, "geometry": {"type": "Point", "coordinates": [117.40306780340846, 0.013748485120337656]}}, {"type": "Feature", "properties": {"norad_id": 28702, "name": "GALAXY 28 (G-28)", "group": "intelsat", "lat": 2.5631665768768728, "lon": 147.71472798904549, "alt_km": 35788.30033013087, "timestamp": "2025-12-04T10:51:49.773618+00:00", "meta": {"OBJECT_NAME": "GALAXY 28 (G-28)", "OBJECT_ID": "2005-022A", "EPOCH": "2025-12-03T13:20:00.645792", "MEAN_MOTION": 1.00272256, "ECCENTRICITY": 0.00026419, "INCLINATION": 2.7952, "RA_OF_ASC_NODE": 81.3879, "ARG_OF_PERICENTER": 169.944, "MEAN_ANOMALY": 292.6137, "EPHEMERIS_TYPE": 0, "CLASSIFICATION_TYPE": "U", "NORAD_CAT_ID": 28702, "ELEMENT_SET_NO": 999, "REV_AT_EPOCH": 5001, "BSTAR": 0, "MEAN_MOTION_DOT": -1.7e-06, "MEAN_MOTION_DDOT": 0}, "tle": {"line1": "1 28702U 05022A   25337.55556303 -.00000170  00000+0  00000+0 0  9997", "line2": "2 28702   2.7952  81.3879 0002641 169.9440 292.6137  1.00272256 50019"}}, "geometry": {"type": "Point", "coordinates": [147.71472798904549, 2.5631665768768728]}}, {"type": "Feature", "properties": {"norad_id": 29236, "name": "GALAXY 16 (G-16)", "group": "intelsat", "lat": -0.008863784176678121, "lon": 137.41837444574637, "alt_km": 35792.38233580064, "timestamp": "2025-12-04T10:51:49.773630+00:00", "meta": {"OBJECT_NAME": "GALAXY 16 (G-16)", "OBJECT_ID": "2006-023A", "EPOCH": "2025-12-03T13:17:08.421216", "MEAN_MOTION": 1.00270132, "ECCENTRICITY": 0.00029062, "INCLINATION": 0.0242, "RA_OF_ASC_NODE": 220.5298, "ARG_OF_PERICENTER": 35.0993, "MEAN_ANOMALY": 277.2871, "EPHEMERIS_TYPE": 0, "CLASSIFICATION_TYPE": "U", "NORAD_CAT_ID": 29236, "ELEMENT_SET_NO": 999, "REV_AT_EPOCH": 7101, "BSTAR": 0, "MEAN_MOTION_DOT": -1.09e-06, "MEAN_MOTION_DDOT": 0}, "tle": {"line1": "1 29236U 06023A   25337.55356969 -.00000109  00000+0  00000+0 0  9990", "line2": "2 29236   0.0242 220.5298 0002906  35.0993 277.2871  1.00270132 71015"}}, "geometry": {"type": "Point", "coordinates": [137.41837444574637, -0.008863784176678121]}}, {"type": "Feature", "properties": {"norad_id": 29494, "name": "DIRECTV 9S", "group": "intelsat", "lat": 1.5144743352176906, "lon": 135.21040985614005, "alt_km": 35792.328467853484, "timestamp": "2025-12-04T10:51:49.773642+00:00", "meta": {"OBJECT_NAME": "DIRECTV 9S", "OBJECT_ID": "2006-043A", "EPOCH": "2025-12-03T13:16:30.980640", "MEAN_MOTION": 1.00270563, "ECCENTRICITY": 0.00032023, "INCLINATION": 1.9146, "RA_OF_ASC_NODE": 83.3064, "ARG_OF_PERICENTER": 168.5637, "MEAN_ANOMALY": 278.6961, "EPHEMERIS_TYPE": 0, "CLASSIFICATION_TYPE": "U", "NORAD_CAT_ID": 29494, "ELEMENT_SET_NO": 999, "REV_AT_EPOCH": 4942, "BSTAR": 0, "MEAN_MOTION_DOT": -9.6e-07, "MEAN_MOTION_DDOT": 0}, "tle": {"line1": "1 29494U 06043A   25337.55313635 -.00000096  00000+0  00000+0 0  9996", "line2": "2 29494   1.9146  83.3064 0003202 168.5637 278.6961  1.00270563 49420"}}, "geometry": {"type": "Point", "coordinates": [135.21040985614005, 1.5144743352176906]}}, {"type": "Feature", "properties": {"norad_id": 31307, "name": "GALAXY 17 (G-17)", "group": "intelsat", "lat": 2.3116086177726314, "lon": 151.37801322377726, "alt_km": 35785.54928074141, "timestamp": "2025-12-04T10:51:49.773653+00:00", "meta": {"OBJECT_NAME": "GALAXY 17 (G-17)", "OBJECT_ID": "2007-016B", "EPOCH": "2025-12-04T02:58:38.625888", "MEAN_MOTION": 1.00270326, "ECCENTRICITY": 0.0006127, "INCLINATION": 2.4767, "RA_OF_ASC_NODE": 82.3836, "ARG_OF_PERICENTER": 157.4491, "MEAN_ANOMALY": 153.0322, "EPHEMERIS_TYPE": 0, "CLASSIFICATION_TYPE": "U", "NORAD_CAT_ID": 31307, "ELEMENT_SET_NO": 999, "REV_AT_EPOCH": 6784, "BSTAR": 0, "MEAN_MOTION_DOT": -1.91e-06, "MEAN_MOTION_DDOT": 0}, "tle": {"line1": "1 31307U 07016B   25338.12405817 -.00000191  00000+0  00000+0 0  9997", "line2": "2 31307   2.4767  82.3836 0006127 157.4491 153.0322  1.00270326 67841"}}, "geometry": {"type": "Point", "coordinates": [151.37801322377726, 2.3116086177726314]}}, {"type": "Feature", "properties": {"norad_id": 31862, "name": "DIRECTV 10", "group": "intelsat", "lat": -0.003059543905469657, "lon": 133.66731247408953, "alt_km": 35785.35237693362, "timestamp": "2025-12-04T10:51:49.773665+00:00", "meta": {"OBJECT_NAME": "DIRECTV 10", "OBJECT_ID": "2007-032A", "EPOCH": "2025-12-03T13:16:01.028352", "MEAN_MOTION": 1.00272155, "ECCENTRICITY": 3.391e-05, "INCLINATION": 0.0122, "RA_OF_ASC_NODE": 175.5522, "ARG_OF_PERICENTER": 21.3057, "MEAN_ANOMALY": 331.993, "EPHEMERIS_TYPE": 0, "CLASSIFICATION_TYPE": "U", "NORAD_CAT_ID": 31862, "ELEMENT_SET_NO": 999, "REV_AT_EPOCH": 4363, "BSTAR": 0, "MEAN_MOTION_DOT": -8.5e-07, "MEAN_MOTION_DDOT": 0}, "tle": {"line1": "1 31862U 07032A   25337.55278968 -.00000085  00000+0  00000+0 0  9994", "line2": "2 31862   0.0122 175.5522 0000339  21.3057 331.9930  1.00272155 43634"}}, "geometry": {"type": "Point", "coordinates": [133.66731247408953, -0.003059543905469657]}}, {"type": "Feature", "properties": {"norad_id": 32253, "name": "INTELSAT 11 (IS-11)", "group": "intelsat", "lat": 2.5825105941447637, "lon": 138.51126900496877, "alt_km": 36142.26477353752, "timestamp": "2025-12-04T10:51:49.773677+00:00", "meta": {"OBJECT_NAME": "INTELSAT 11 (IS-11)", "OBJECT_ID": "2007-044B", "EPOCH": "2025-12-04T01:17:04.361280", "MEAN_MOTION": 0.99047178, "ECCENTRICITY": 0.0009293, "INCLINATION": 3.0559, "RA_OF_ASC_NODE": 81.0729, "ARG_OF_PERICENTER": 161.5096, "MEAN_ANOMALY": 113.7633, "EPHEMERIS_TYPE": 0, "CLASSIFICATION_TYPE": "U", "NORAD_CAT_ID": 32253, "ELEMENT_SET_NO": 999, "REV_AT_EPOCH": 6651, "BSTAR": 0, "MEAN_MOTION_DOT": 1.8e-07, "MEAN_MOTION_DDOT": 0}, "tle": {"line1": "1 32253U 07044B   25338.05352270  .00000018  00000+0  00000+0 0  9992", "line2": "2 32253   3.0559  81.0729 0009293 161.5096 113.7633  0.99047178 66514"}}, "geometry": {"type": "Point", "coordinates": [138.51126900496877, 2.5825105941447637]}}, {"type": "Feature", "properties": {"norad_id": 32388, "name": "HORIZONS-2", "group": "intelsat", "lat": 2.05650135702638, "lon": 162.61999532347272, "alt_km": 35790.16112963632, "timestamp": "2025-12-04T10:51:49.773689+00:00", "meta": {"OBJECT_NAME": "HORIZONS-2", "OBJECT_ID": "2007-063B", "EPOCH": "2025-12-04T00:48:31.730112", "MEAN_MOTION": 1.00271861, "ECCENTRICITY": 0.0005014, "INCLINATION": 2.0973, "RA_OF_ASC_NODE": 83.0553, "ARG_OF_PERICENTER": 181.481, "MEAN_ANOMALY": 106.9264, "EPHEMERIS_TYPE": 0, "CLASSIFICATION_TYPE": "U", "NORAD_CAT_ID": 32388, "ELEMENT_SET_NO": 999, "REV_AT_EPOCH": 6585, "BSTAR": 0, "MEAN_MOTION_DOT": -2.38e-06, "MEAN_MOTION_DDOT": 0}, "tle": {"line1": "1 32388U 07063B   25338.03370058 -.00000238  00000+0  00000+0 0  9999", "line2": "2 32388   2.0973  83.0553 0005014 181.4810 106.9264  1.00271861 65852"}}, "geometry": {"type": "Point", "coordinates": [162.61999532347272, 2.05650135702638]}}, {"type": "Feature", "properties": {"norad_id": 32729, "name": "DIRECTV 11", "group": "intelsat", "lat": -0.007292481757921177, "lon": 137.2592600728682, "alt_km": 35785.1739297229, "timestamp": "2025-12-04T10:51:49.773701+00:00", "meta": {"OBJECT_NAME": "DIRECTV 11", "OBJECT_ID": "2008-013A", "EPOCH": "2025-12-03T23:33:29.284416", "MEAN_MOTION": 1.00269062, "ECCENTRICITY": 5.38e-05, "INCLINATION": 0.0089, "RA_OF_ASC_NODE": 259.7907, "ARG_OF_PERICENTER": 278.9998, "MEAN_ANOMALY": 148.4493, "EPHEMERIS_TYPE": 0, "CLASSIFICATION_TYPE": "U", "NORAD_CAT_ID": 32729, "ELEMENT_SET_NO": 999, "REV_AT_EPOCH": 4363, "BSTAR": 0, "MEAN_MOTION_DOT": -1.09e-06, "MEAN_MOTION_DDOT": 0}, "tle": {"line1": "1 32729U 08013A   25337.98158894 -.00000109  00000+0  00000+0 0  9996", "line2": "2 32729   0.0089 259.7907 0000538 278.9998 148.4493  1.00269062 43634"}}, "geometry": {"type": "Point", "coordinates": [137.2592600728682, -0.007292481757921177]}}, {"type": "Feature", "properties": {"norad_id": 32951, "name": "GALAXY 18 (G-18)", "group": "intelsat", "lat": 0.03093974609399819, "lon": 113.45108857129433, "alt_km": 35797.44580241525, "timestamp": "2025-12-04T10:51:49.773713+00:00", "meta": {"OBJECT_NAME": "GALAXY 18 (G-18)", "OBJECT_ID": "2008-024A", "EPOCH": "2025-12-03T13:10:16.578336", "MEAN_MOTION": 1.00272732, "ECCENTRICITY": 0.00033926, "INCLINATION": 0.0183, "RA_OF_ASC_NODE": 7.1741, "ARG_OF_PERICENTER": 250.7376, "MEAN_ANOMALY": 249.3008, "EPHEMERIS_TYPE": 0, "CLASSIFICATION_TYPE": "U", "NORAD_CAT_ID": 32951, "ELEMENT_SET_NO": 999, "REV_AT_EPOCH": 4389, "BSTAR": 0, "MEAN_MOTION_DOT": 4.3e-07, "MEAN_MOTION_DDOT": 0}, "tle": {"line1": "1 32951U 08024A   25337.54880299  .00000043  00000+0  00000+0 0  9994", "line2": "2 32951   0.0183   7.1741 0003392 250.7376 249.3008  1.00272732 43895"}}, "geometry": {"type": "Point", "coordinates": [113.45108857129433, 0.03093974609399819]}}]}